<?xml version="1.0" encoding="UTF-8"?>
<ndm xmlns:xsi="http://www.w3.org/2001/XMLSchema-instance" xsi:noNamespaceSchemaLocation="https://sanaregistry.org/r/ndmxml_unqualified/ndmxml-2.0.0-master-2.0.xsd">
<omm id="CCSDS_OMM_VERS" version="2.0">
<header><CREATION_DATE/><ORIGINATOR/></header><body><segment><metadata><OBJECT_NAME>KUIPER-00008</OBJECT_NAME><OBJECT_ID>2025-088A</OBJECT_ID><CENTER_NAME>EARTH</CENTER_NAME><REF_FRAME>TEME</REF_FRAME><TIME_SYSTEM>UTC</TIME_SYSTEM><MEAN_ELEMENT_THEORY>SGP4</MEAN_ELEMENT_THEORY></metadata><data><meanElements><EPOCH>2025-11-13T12:36:51.344928</EPOCH><MEAN_MOTION>15.00012915</MEAN_MOTION><ECCENTRICITY>.0011619</ECCENTRICITY><INCLINATION>51.8908</INCLINATION><RA_OF_ASC_NODE>256.5579</RA_OF_ASC_NODE><ARG_OF_PERICENTER>76.0748</ARG_OF_PERICENTER><MEAN_ANOMALY>284.1515</MEAN_ANOMALY></meanElements><tleParameters><EPHEMERIS_TYPE>0</EPHEMERIS_TYPE><CLASSIFICATION_TYPE>U</CLASSIFICATION_TYPE><NORAD_CAT_ID>63724</NORAD_CAT_ID><ELEMENT_SET_NO>999</ELEMENT_SET_NO><REV_AT_EPOCH>3063</REV_AT_EPOCH><BSTAR>.17468E-2</BSTAR><MEAN_MOTION_DOT>.218E-3</MEAN_MOTION_DOT><MEAN_MOTION_DDOT>0</MEAN_MOTION_DDOT></tleParameters></data></segment></body></omm>
<omm id="CCSDS_OMM_VERS" version="2.0">
<header><CREATION_DATE/><ORIGINATOR/></header><body><segment><metadata><OBJECT_NAME>KUIPER-00009</OBJECT_NAME><OBJECT_ID>2025-088B</OBJECT_ID><CENTER_NAME>EARTH</CENTER_NAME><REF_FRAME>TEME</REF_FRAME><TIME_SYSTEM>UTC</TIME_SYSTEM><MEAN_ELEMENT_THEORY>SGP4</MEAN_ELEMENT_THEORY></metadata><data><meanElements><EPOCH>2025-11-13T05:19:15.445056</EPOCH><MEAN_MOTION>14.80311048</MEAN_MOTION><ECCENTRICITY>.0013469</ECCENTRICITY><INCLINATION>51.9011</INCLINATION><RA_OF_ASC_NODE>261.5841</RA_OF_ASC_NODE><ARG_OF_PERICENTER>73.2135</ARG_OF_PERICENTER><MEAN_ANOMALY>287.0304</MEAN_ANOMALY></meanElements><tleParameters><EPHEMERIS_TYPE>0</EPHEMERIS_TYPE><CLASSIFICATION_TYPE>U</CLASSIFICATION_TYPE><NORAD_CAT_ID>63725</NORAD_CAT_ID><ELEMENT_SET_NO>999</ELEMENT_SET_NO><REV_AT_EPOCH>3053</REV_AT_EPOCH><BSTAR>.14647E-2</BSTAR><MEAN_MOTION_DOT>.11077E-3</MEAN_MOTION_DOT><MEAN_MOTION_DDOT>0</MEAN_MOTION_DDOT></tleParameters></data></segment></body></omm>
<omm id="CCSDS_OMM_VERS" version="2.0">
<header><CREATION_DATE/><ORIGINATOR/></header><body><segment><metadata><OBJECT_NAME>KUIPER-00010</OBJECT_NAME><OBJECT_ID>2025-088C</OBJECT_ID><CENTER_NAME>EARTH</CENTER_NAME><REF_FRAME>TEME</REF_FRAME><TIME_SYSTEM>UTC</TIME_SYSTEM><MEAN_ELEMENT_THEORY>SGP4</MEAN_ELEMENT_THEORY></metadata><data><meanElements><EPOCH>2025-11-13T11:41:35.504736</EPOCH><MEAN_MOTION>14.80203896</MEAN_MOTION><ECCENTRICITY>.0012337</ECCENTRICITY><INCLINATION>51.9001</INCLINATION><RA_OF_ASC_NODE>236.9113</RA_OF_ASC_NODE><ARG_OF_PERICENTER>117.3449</ARG_OF_PERICENTER><MEAN_ANOMALY>242.8770</MEAN_ANOMALY></meanElements><tleParameters><EPHEMERIS_TYPE>0</EPHEMERIS_TYPE><CLASSIFICATION_TYPE>U</CLASSIFICATION_TYPE><NORAD_CAT_ID>63726</NORAD_CAT_ID><ELEMENT_SET_NO>999</ELEMENT_SET_NO><REV_AT_EPOCH>3052</REV_AT_EPOCH><BSTAR>.12256E-2</BSTAR><MEAN_MOTION_DOT>.9203E-4</MEAN_MOTION_DOT><MEAN_MOTION_DDOT>0</MEAN_MOTION_DDOT></tleParameters></data></segment></body></omm>
<omm id="CCSDS_OMM_VERS" version="2.0">
<header><CREATION_DATE/><ORIGINATOR/></header><body><segment><metadata><OBJECT_NAME>KUIPER-00011</OBJECT_NAME><OBJECT_ID>2025-088D</OBJECT_ID><CENTER_NAME>EARTH</CENTER_NAME><REF_FRAME>TEME</REF_FRAME><TIME_SYSTEM>UTC</TIME_SYSTEM><MEAN_ELEMENT_THEORY>SGP4</MEAN_ELEMENT_THEORY></metadata><data><meanElements><EPOCH>2025-11-13T09:05:55.137696</EPOCH><MEAN_MOTION>14.79532602</MEAN_MOTION><ECCENTRICITY>.0014643</ECCENTRICITY><INCLINATION>51.9002</INCLINATION><RA_OF_ASC_NODE>244.9825</RA_OF_ASC_NODE><ARG_OF_PERICENTER>90.8926</ARG_OF_PERICENTER><MEAN_ANOMALY>269.3714</MEAN_ANOMALY></meanElements><tleParameters><EPHEMERIS_TYPE>0</EPHEMERIS_TYPE><CLASSIFICATION_TYPE>U</CLASSIFICATION_TYPE><NORAD_CAT_ID>63727</NORAD_CAT_ID><ELEMENT_SET_NO>999</ELEMENT_SET_NO><REV_AT_EPOCH>3053</REV_AT_EPOCH><BSTAR>.26498E-2</BSTAR><MEAN_MOTION_DOT>.19879E-3</MEAN_MOTION_DOT><MEAN_MOTION_DDOT>0</MEAN_MOTION_DDOT></tleParameters></data></segment></body></omm>
<omm id="CCSDS_OMM_VERS" version="2.0">
<header><CREATION_DATE/><ORIGINATOR/></header><body><segment><metadata><OBJECT_NAME>KUIPER-00012</OBJECT_NAME><OBJECT_ID>2025-088E</OBJECT_ID><CENTER_NAME>EARTH</CENTER_NAME><REF_FRAME>TEME</REF_FRAME><TIME_SYSTEM>UTC</TIME_SYSTEM><MEAN_ELEMENT_THEORY>SGP4</MEAN_ELEMENT_THEORY></metadata><data><meanElements><EPOCH>2025-11-13T18:00:02.998944</EPOCH><MEAN_MOTION>14.99353002</MEAN_MOTION><ECCENTRICITY>.0010358</ECCENTRICITY><INCLINATION>51.8882</INCLINATION><RA_OF_ASC_NODE>227.1403</RA_OF_ASC_NODE><ARG_OF_PERICENTER>104.7381</ARG_OF_PERICENTER><MEAN_ANOMALY>24.1923</MEAN_ANOMALY></meanElements><tleParameters><EPHEMERIS_TYPE>0</EPHEMERIS_TYPE><CLASSIFICATION_TYPE>U</CLASSIFICATION_TYPE><NORAD_CAT_ID>63728</NORAD_CAT_ID><ELEMENT_SET_NO>999</ELEMENT_SET_NO><REV_AT_EPOCH>478</REV_AT_EPOCH><BSTAR>-.98897E-1</BSTAR><MEAN_MOTION_DOT>-.1127564E-1</MEAN_MOTION_DOT><MEAN_MOTION_DDOT>0</MEAN_MOTION_DDOT></tleParameters></data></segment></body></omm>
<omm id="CCSDS_OMM_VERS" version="2.0">
<header><CREATION_DATE/><ORIGINATOR/></header><body><segment><metadata><OBJECT_NAME>KUIPER-00013</OBJECT_NAME><OBJECT_ID>2025-088F</OBJECT_ID><CENTER_NAME>EARTH</CENTER_NAME><REF_FRAME>TEME</REF_FRAME><TIME_SYSTEM>UTC</TIME_SYSTEM><MEAN_ELEMENT_THEORY>SGP4</MEAN_ELEMENT_THEORY></metadata><data><meanElements><EPOCH>2025-11-13T13:30:40.577760</EPOCH><MEAN_MOTION>14.79990629</MEAN_MOTION><ECCENTRICITY>.0008975</ECCENTRICITY><INCLINATION>51.8994</INCLINATION><RA_OF_ASC_NODE>261.5920</RA_OF_ASC_NODE><ARG_OF_PERICENTER>12.0734</ARG_OF_PERICENTER><MEAN_ANOMALY>348.0441</MEAN_ANOMALY></meanElements><tleParameters><EPHEMERIS_TYPE>0</EPHEMERIS_TYPE><CLASSIFICATION_TYPE>U</CLASSIFICATION_TYPE><NORAD_CAT_ID>63729</NORAD_CAT_ID><ELEMENT_SET_NO>999</ELEMENT_SET_NO><REV_AT_EPOCH>3037</REV_AT_EPOCH><BSTAR>.70511E-3</BSTAR><MEAN_MOTION_DOT>.5167E-4</MEAN_MOTION_DOT><MEAN_MOTION_DDOT>0</MEAN_MOTION_DDOT></tleParameters></data></segment></body></omm>
<omm id="CCSDS_OMM_VERS" version="2.0">
<header><CREATION_DATE/><ORIGINATOR/></header><body><segment><metadata><OBJECT_NAME>KUIPER-00014</OBJECT_NAME><OBJECT_ID>2025-088G</OBJECT_ID><CENTER_NAME>EARTH</CENTER_NAME><REF_FRAME>TEME</REF_FRAME><TIME_SYSTEM>UTC</TIME_SYSTEM><MEAN_ELEMENT_THEORY>SGP4</MEAN_ELEMENT_THEORY></metadata><data><meanElements><EPOCH>2025-11-13T13:28:26.631840</EPOCH><MEAN_MOTION>14.79981024</MEAN_MOTION><ECCENTRICITY>.0009451</ECCENTRICITY><INCLINATION>51.9018</INCLINATION><RA_OF_ASC_NODE>262.5696</RA_OF_ASC_NODE><ARG_OF_PERICENTER>68.9546</ARG_OF_PERICENTER><MEAN_ANOMALY>291.2426</MEAN_ANOMALY></meanElements><tleParameters><EPHEMERIS_TYPE>0</EPHEMERIS_TYPE><CLASSIFICATION_TYPE>U</CLASSIFICATION_TYPE><NORAD_CAT_ID>63730</NORAD_CAT_ID><ELEMENT_SET_NO>999</ELEMENT_SET_NO><REV_AT_EPOCH>3017</REV_AT_EPOCH><BSTAR>.23994E-2</BSTAR><MEAN_MOTION_DOT>.18151E-3</MEAN_MOTION_DOT><MEAN_MOTION_DDOT>0</MEAN_MOTION_DDOT></tleParameters></data></segment></body></omm>
<omm id="CCSDS_OMM_VERS" version="2.0">
<header><CREATION_DATE/><ORIGINATOR/></header><body><segment><metadata><OBJECT_NAME>KUIPER-00015</OBJECT_NAME><OBJECT_ID>2025-088H</OBJECT_ID><CENTER_NAME>EARTH</CENTER_NAME><REF_FRAME>TEME</REF_FRAME><TIME_SYSTEM>UTC</TIME_SYSTEM><MEAN_ELEMENT_THEORY>SGP4</MEAN_ELEMENT_THEORY></metadata><data><meanElements><EPOCH>2025-11-13T13:43:17.509152</EPOCH><MEAN_MOTION>14.81664116</MEAN_MOTION><ECCENTRICITY>.0010828</ECCENTRICITY><INCLINATION>51.8983</INCLINATION><RA_OF_ASC_NODE>273.9080</RA_OF_ASC_NODE><ARG_OF_PERICENTER>55.6749</ARG_OF_PERICENTER><MEAN_ANOMALY>304.5237</MEAN_ANOMALY></meanElements><tleParameters><EPHEMERIS_TYPE>0</EPHEMERIS_TYPE><CLASSIFICATION_TYPE>U</CLASSIFICATION_TYPE><NORAD_CAT_ID>63731</NORAD_CAT_ID><ELEMENT_SET_NO>999</ELEMENT_SET_NO><REV_AT_EPOCH>3047</REV_AT_EPOCH><BSTAR>.2023E-2</BSTAR><MEAN_MOTION_DOT>.159E-3</MEAN_MOTION_DOT><MEAN_MOTION_DDOT>0</MEAN_MOTION_DDOT></tleParameters></data></segment></body></omm>

</ndm>
